LANDSAT 9               
1 49260U 21088A   24024.20997892  .00000904  00000+0  21055-3 0  9996
2 49260  98.2057  96.1717 0001043  90.3107 269.8211 14.57129702123578
